QIANFAN-9               
1 60387U 24140J   25223.51470132  .00000138  00000+0  19453-3 0  9998
2 60387  88.9845 312.0733 0016482 186.3778 173.7166 13.50958962 50686
QIANFAN-10              
1 60388U 24140K   25223.51882411  .00000135  00000+0  19076-3 0  9994
2 60388  88.9853 311.4090 0015752 164.0569 196.1081 13.50961124 51078
QIANFAN-11              
1 60389U 24140L   25223.55580961  .00000139  00000+0  19602-3 0  9993
2 60389  88.9781 312.0835 0014532 184.9794 175.1215 13.50961399 50573
QIANFAN-12              
1 60390U 24140M   25223.50226038  .00000153  00000+0  21786-3 0  9994
2 60390  88.9824 312.0786 0013065 192.3970 167.6861 13.50961228 50649
QIANFAN-13              
1 60391U 24140N   25223.54754189  .00000136  00000+0  19182-3 0  9990
2 60391  88.9836 312.1586 0012792 194.7938 165.2840 13.50961130 50629
QIANFAN-14              
1 60392U 24140P   25223.49811180  .00000160  00000+0  22985-3 0  9992
2 60392  88.9815 312.0877 0016447 196.9881 163.0722 13.50962246 50625
QIANFAN-15              
1 60393U 24140Q   25223.50649931  .00000147  00000+0  20921-3 0  9991
2 60393  88.9838 312.0142 0012782 181.0199 179.0928 13.50958848 50708
QIANFAN-16              
1 60394U 24140R   25223.49410651  .00000151  00000+0  21492-3 0  9994
2 60394  88.9841 312.1317 0014239 199.9266 160.1331 13.50961326 50658
